#dV2023  1 29 10  0  0.00000000    1682       CTS   FIT  GFZ
## 2247  36000.00000000    30.00000000 59973 0.4166666666667
+    1   L65  0  0  0  0  0  0  0  0  0  0  0  0  0  0  0  0
+          0  0  0  0  0  0  0  0  0  0  0  0  0  0  0  0  0
+          0  0  0  0  0  0  0  0  0  0  0  0  0  0  0  0  0
+          0  0  0  0  0  0  0  0  0  0  0  0  0  0  0  0  0
+          0  0  0  0  0  0  0  0  0  0  0  0  0  0  0  0  0
++         0  0  0  0  0  0  0  0  0  0  0  0  0  0  0  0  0
++         0  0  0  0  0  0  0  0  0  0  0  0  0  0  0  0  0
++         0  0  0  0  0  0  0  0  0  0  0  0  0  0  0  0  0
++         0  0  0  0  0  0  0  0  0  0  0  0  0  0  0  0  0
++         0  0  0  0  0  0  0  0  0  0  0  0  0  0  0  0  0
%c L  cc GPS ccc cccc cccc cccc cccc ccccc ccccc ccccc ccccc
%c cc cc ccc ccc cccc cccc cccc cccc ccccc ccccc ccccc ccccc
%f  0.0000000  0.000000000  0.00000000000  0.000000000000000
%f  0.0000000  0.000000000  0.00000000000  0.000000000000000
%i    0    0    0    0      0      0      0      0         0
%i    0    0    0    0      0      0      0      0         0
/* CCCCCCCCCCCCCCCCCCCCCCCCCCCCCCCCCCCCCCCCCCCCCCCCCCCCCCCCCCCCCCCCCCCCCCCCCCCCC
/* C                             GFZ RSO-ORBIT                                 C
/* C DOI: https://doi.org/10.5880/GFZ_ORBIT/RSO/L65_G_v02                      C
/* C                                                                           C
/* C DORIS        RMS: not applicable                                          C
/* C GNSS-E Code  RMS: not applicable                                          C
/* C GNSS-E Phase RMS: not applicable                                          C
/* C GNSS-G Code  RMS:  49.389 [cm]   Obs.acc.:     13534 Obs.eli.:      1187  C
/* C GNSS-G Phase RMS:   4.170 [mm]   Obs.acc.:     13534 Obs.eli.:      1187  C
/* C SLR          RMS:   5.878 [cm]   Obs.acc.:        67 Obs.eli.:         0  C
/* C                                                                           C
/* CCCCCCCCCCCCCCCCCCCCCCCCCCCCCCCCCCCCCCCCCCCCCCCCCCCCCCCCCCCCCCCCCCCCCCCCCCCCC
*  2023  1 29 15 31 30.00000000
PL65  -5489.589770   -549.670637   4078.874437   2439.544386
VL65 -45353.005514  -2173.770622 -61294.126487 999999.999999
*  2023  1 29 15 32  0.00000000
PL65  -5622.605043   -555.593950   3892.757127   2440.012780
VL65 -43315.324335  -1776.220866 -62772.622332 999999.999999
*  2023  1 29 15 32 30.00000000
PL65  -5749.431750   -560.334987   3702.308279   2440.481261
VL65 -41227.679457  -1385.695701 -64181.544743 999999.999999
*  2023  1 29 15 33  0.00000000
PL65  -5869.923494   -563.915797   3507.739042   2440.949814
VL65 -39092.410588  -1002.842261 -65519.286989 999999.999999
*  2023  1 29 15 33 30.00000000
PL65  -5983.940987   -566.360341   3309.265268   2441.418413
VL65 -36911.916982   -628.288696 -66784.320926 999999.999999
*  2023  1 29 15 34  0.00000000
PL65  -6091.352226   -567.694438   3107.107275   2441.887055
VL65 -34688.655387   -262.643437 -67975.198733 999999.999999
*  2023  1 29 15 34 30.00000000
PL65  -6192.032662   -567.945699   2901.489599   2442.355733
VL65 -32425.138148     93.505549 -69090.555703 999999.999999
*  2023  1 29 15 35  0.00000000
PL65  -6285.865363   -567.143468   2692.640743   2442.824436
VL65 -30123.929963    439.592141 -70129.113602 999999.999999
*  2023  1 29 15 35 30.00000000
PL65  -6372.741162   -565.318753   2480.792910   2443.293234
VL65 -27787.643252    775.072720 -71089.682723 999999.999999
*  2023  1 29 15 36  0.00000000
PL65  -6452.558798   -562.504159   2266.181739   2443.761985
VL65 -25418.934312   1099.426456 -71971.162377 999999.999999
*  2023  1 29 15 36 30.00000000
PL65  -6525.225042   -558.733819   2049.046039   2444.230731
VL65 -23020.501296   1412.155958 -72772.541844 999999.999999
*  2023  1 29 15 37  0.00000000
PL65  -6590.654818   -554.043322   1829.627509   2444.699498
VL65 -20595.081303   1712.788023 -73492.903159 999999.999999
*  2023  1 29 15 37 30.00000000
PL65  -6648.771313   -548.469637   1608.170465   2445.168313
VL65 -18145.445298   2000.874592 -74131.422600 999999.999999
*  2023  1 29 15 38  0.00000000
PL65  -6699.506075   -542.051043   1384.921549   2445.637174
VL65 -15674.394807   2275.993556 -74687.370274 999999.999999
*  2023  1 29 15 38 30.00000000
PL65  -6742.799097   -534.827040   1160.129452   2446.105935
VL65 -13184.759755   2537.749587 -75160.111879 999999.999999
*  2023  1 29 15 39  0.00000000
PL65  -6778.598901   -526.838277    934.044623   2446.574702
VL65 -10679.393618   2785.774779 -75549.110642 999999.999999
*  2023  1 29 15 39 30.00000000
PL65  -6806.862599   -518.126463    706.918974   2447.043685
VL65  -8161.168952   3019.728784 -75853.926679 999999.999999
*  2023  1 29 15 40  0.00000000
PL65  -6827.555946   -508.734289    479.005592   2447.512619
VL65  -5632.975241   3239.299304 -76074.216878 999999.999999
*  2023  1 29 15 40 30.00000000
PL65  -6840.653385   -498.705335    250.558447   2447.981356
VL65  -3097.715973   3444.203031 -76209.736405 999999.999999
*  2023  1 29 15 41  0.00000000
PL65  -6846.138089   -488.083992     21.832094   2448.450099
VL65   -558.304290   3634.186058 -76260.339728 999999.999999
*  2023  1 29 15 41 30.00000000
PL65  -6844.001977   -476.915365   -206.918626   2448.918621
VL65   1982.341452   3809.023988 -76225.980966 999999.999999
*  2023  1 29 15 42  0.00000000
PL65  -6834.245725   -465.245189   -435.438881   2449.387210
VL65   4521.302017   3968.522429 -76106.713805 999999.999999
*  2023  1 29 15 42 30.00000000
PL65  -6816.878766   -453.119735   -663.474150   2449.855783
VL65   7055.661662   4112.517306 -75902.691069 999999.999999
*  2023  1 29 15 43  0.00000000
PL65  -6791.919265   -440.585723   -890.770519   2450.324273
VL65   9582.512427   4240.874821 -75614.163538 999999.999999
*  2023  1 29 15 43 30.00000000
PL65  -6759.394098   -427.690228  -1117.074970   2450.792696
VL65  12098.957166   4353.491431 -75241.478052 999999.999999
*  2023  1 29 15 44  0.00000000
PL65  -6719.338813   -414.480590  -1342.135668   2451.261184
VL65  14602.111374   4450.293896 -74785.076828 999999.999999
*  2023  1 29 15 44 30.00000000
PL65  -6671.797589   -401.004323  -1565.702250   2451.729579
VL65  17089.106083   4531.238861 -74245.498004 999999.999999
*  2023  1 29 15 45  0.00000000
PL65  -6616.823186   -387.309029  -1787.526110   2452.198033
VL65  19557.091538   4596.312328 -73623.375525 999999.999999
*  2023  1 29 15 45 30.00000000
PL65  -6554.476878   -373.442306  -2007.360686   2452.666543
VL65  22003.240481   4645.530060 -72919.439066 999999.999999
*  2023  1 29 15 46  0.00000000
PL65  -6484.828381   -359.451659  -2224.961752   2453.135221
VL65  24424.752598   4678.938490 -72134.514010 999999.999999
*  2023  1 29 15 46 30.00000000
PL65  -6407.955769   -345.384408  -2440.087698   2453.603830
VL65  26818.859242   4696.614910 -71269.519997 999999.999999
*  2023  1 29 15 47  0.00000000
PL65  -6323.945366   -331.287595  -2652.499813   2454.072816
VL65  29182.827407   4698.666584 -70325.469323 999999.999999
*  2023  1 29 15 47 30.00000000
PL65  -6232.891637   -317.207898  -2861.962557   2454.542106
VL65  31513.964474   4685.229453 -69303.464475 999999.999999
*  2023  1 29 15 48  0.00000000
PL65  -6134.897061   -303.191544  -3068.243831   2455.011012
VL65  33809.621043   4656.467953 -68204.694381 999999.999999
*  2023  1 29 15 48 30.00000000
PL65  -6030.071998   -289.284223  -3271.115229   2455.479743
VL65  36067.192147   4612.575522 -67030.433048 999999.999999
*  2023  1 29 15 49  0.00000000
PL65  -5918.534552   -275.531001  -3470.352294   2455.948285
VL65  38284.120653   4553.773933 -65782.039182 999999.999999
*  2023  1 29 15 49 30.00000000
PL65  -5800.410423   -261.976240  -3665.734770   2456.416706
VL65  40457.901349   4480.312410 -64460.953785 999999.999999
*  2023  1 29 15 50  0.00000000
PL65  -5675.832744   -248.663511  -3857.046843   2456.885115
VL65  42586.083565   4392.467461 -63068.697396 999999.999999
*  2023  1 29 15 50 30.00000000
PL65  -5544.941916   -235.635515  -4044.077379   2457.353359
VL65  44666.273454   4290.542977 -61606.868047 999999.999999
*  2023  1 29 15 51  0.00000000
PL65  -5407.885433   -222.934003  -4226.620150   2457.821702
VL65  46696.136003   4174.869721 -60077.138971 999999.999999
*  2023  1 29 15 51 30.00000000
PL65  -5264.817704   -210.599691  -4404.474058   2458.289968
VL65  48673.396687   4045.803714 -58481.256891 999999.999999
*  2023  1 29 15 52  0.00000000
PL65  -5115.899868   -198.672194  -4577.443354   2458.758519
VL65  50595.844171   3903.724900 -56821.040331 999999.999999
*  2023  1 29 15 52 30.00000000
PL65  -4961.299600   -187.189951  -4745.337851   2459.226906
VL65  52461.332643   3749.036830 -55098.377538 999999.999999
*  2023  1 29 15 53  0.00000000
PL65  -4801.190911   -176.190156  -4907.973128   2459.695515
VL65  54267.785465   3582.166282 -53315.225498 999999.999999
*  2023  1 29 15 53 30.00000000
PL65  -4635.753928   -165.708688  -5065.170734   2460.164118
VL65  56013.200356   3403.562323 -51473.605371 999999.999999
*  2023  1 29 15 54  0.00000000
PL65  -4465.174677   -155.780046  -5216.758370   2460.632833
VL65  57695.649363   3213.694908 -49575.596691 999999.999999
*  2023  1 29 15 54 30.00000000
PL65  -4289.644855   -146.437292  -5362.570061   2461.101494
VL65  59313.278183   3013.054108 -47623.336797 999999.999999
*  2023  1 29 15 55  0.00000000
PL65  -4109.361608   -137.711986  -5502.446331   2461.570285
VL65  60864.309516   2802.150038 -45619.019334 999999.999999
*  2023  1 29 15 55 30.00000000
PL65  -3924.527296   -129.634127  -5636.234364   2462.039125
VL65  62347.044888   2581.511968 -43564.890321 999999.999999
*  2023  1 29 15 56  0.00000000
PL65  -3735.349256   -122.232101  -5763.788156   2462.507911
VL65  63759.865385   2351.687081 -41463.245619 999999.999999
*  2023  1 29 15 56 30.00000000
PL65  -3542.039559   -115.532627  -5884.968663   2462.976813
VL65  65101.233062   2113.239531 -39316.428386 999999.999999
EOF
